{"type":"FeatureCollection","features":[{"type":"Feature","properties":{"WETLAND_NO":"W-002","WETLANDTYP":"Permanent open water","WTRREG":"Permanent","WTRREG_CON":"High","EX_DATASET":"Vicmap Hydro","VERS_DATE":"2025-03-19","PRIVATE_NOTE":"must not ship"},"geometry":{"type":"Polygon","coordinates":[[[144.9,-37.9],[144.95,-37.9],[145,-37.9],[145,-37.8],[144.9,-37.8],[144.9,-37.9]]]}},{"type":"Feature","properties":{"WETLAND_NO":"W-001","WETLANDTYP":"Seasonal marsh","WTRREG":"Seasonal","WTRREG_CON":"Certain","EX_DATASET":"CMA regional mapping","VERS_DATE":"2025-03-19","PRIVATE_NOTE":"must not ship"},"geometry":{"type":"Polygon","coordinates":[[[142,-36],[142.1,-36],[142.1,-35.9],[142,-35.9],[142,-36]]]}},{"type":"Feature","properties":{"WETLAND_NO":"W-003","WETLANDTYP":"Intermittent saline wetland","WTRREG":"Intermittent","WTRREG_CON":"Medium","EX_DATASET":"Saltmarsh mapping","VERS_DATE":"2025-03-19","PRIVATE_NOTE":"must not ship"},"geometry":{"type":"MultiPolygon","coordinates":[[[[145.2,-38.1],[145.3,-38.1],[145.3,-38],[145.2,-38],[145.2,-38.1]]],[[[145.35,-38.05],[145.4,-38.05],[145.4,-38],[145.35,-38],[145.35,-38.05]]]]}}]}
